{
  "type": "FeatureCollection",
  "features": [
    {
      "type": "Feature",
      "properties": {
        "norad_id": 43602,
        "name": "BEIDOU-3 M12 (C26)",
        "group": "beidou",
        "lat": -23.90613707214338,
        "lon": 168.47677185643334,
        "alt_km": 21523.142538350174,
        "timestamp": "2025-12-18T23:35:49.325426+00:00",
        "meta_object_name": "BEIDOU-3 M12 (C26)",
        "meta_object_id": "2018-067A",
        "meta_epoch": "2025-12-17T22:53:45.555072",
        "meta_mean_motion": 1.86227791,
        "meta_eccentricity": 0.00092249,
        "meta_inclination": 54.1833,
        "meta_ra_of_asc_node": 187.186,
        "meta_arg_of_pericenter": 41.0055,
        "meta_mean_anomaly": 319.1284,
        "meta_ephemeris_type": 0,
        "meta_classification_type": "U",
        "meta_norad_cat_id": 43602,
        "meta_element_set_no": 999,
        "meta_rev_at_epoch": 4974,
        "meta_bstar": 0,
        "meta_mean_motion_dot": 1.1e-06,
        "meta_mean_motion_ddot": 0,
        "tle_line1": "1 43602U 18067A   25351.95399948  .00000110  00000+0  00000+0 0  9999",
        "tle_line2": "2 43602  54.1833 187.1860 0009224  41.0055 319.1284  1.86227791 49749"
      },
      "geometry": {
        "type": "Point",
        "coordinates": [
          168.47677185643334,
          -23.90613707214338
        ]
      }
    },
    {
      "type": "Feature",
      "properties": {
        "norad_id": 43603,
        "name": "BEIDOU-3 M11 (C25)",
        "group": "beidou",
        "lat": -44.5197601172,
        "lon": 52.405769543447256,
        "alt_km": 21547.945255492617,
        "timestamp": "2025-12-18T23:35:49.325438+00:00",
        "meta_object_name": "BEIDOU-3 M11 (C25)",
        "meta_object_id": "2018-067B",
        "meta_epoch": "2025-12-18T02:07:28.250688",
        "meta_mean_motion": 1.86227303,
        "meta_eccentricity": 0.00056103,
        "meta_inclination": 54.1805,
        "meta_ra_of_asc_node": 187.1455,
        "meta_arg_of_pericenter": 36.7465,
        "meta_mean_anomaly": 323.3559,
        "meta_ephemeris_type": 0,
        "meta_classification_type": "U",
        "meta_norad_cat_id": 43603,
        "meta_element_set_no": 999,
        "meta_rev_at_epoch": 4977,
        "meta_bstar": 0,
        "meta_mean_motion_dot": 1.09e-06,
        "meta_mean_motion_ddot": 0,
        "tle_line1": "1 43603U 18067B   25352.08852142  .00000109  00000+0  00000+0 0  9993",
        "tle_line2": "2 43603  54.1805 187.1455 0005610  36.7465 323.3559  1.86227303 49774"
      },
      "geometry": {
        "type": "Point",
        "coordinates": [
          52.405769543447256,
          -44.5197601172
        ]
      }
    },
    {
      "type": "Feature",
      "properties": {
        "norad_id": 43622,
        "name": "BEIDOU-3 M13 (C32)",
        "group": "beidou",
        "lat": -56.475010497577294,
        "lon": -23.24622856672893,
        "alt_km": 21519.556912447693,
        "timestamp": "2025-12-18T23:35:49.325450+00:00",
        "meta_object_name": "BEIDOU-3 M13 (C32)",
        "meta_object_id": "2018-072A",
        "meta_epoch": "2025-12-18T01:04:45.720768",
        "meta_mean_motion": 1.86231064,
        "meta_eccentricity": 0.00060078,
        "meta_inclination": 56.4641,
        "meta_ra_of_asc_node": 68.6443,
        "meta_arg_of_pericenter": 298.9487,
        "meta_mean_anomaly": 61.0199,
        "meta_ephemeris_type": 0,
        "meta_classification_type": "U",
        "meta_norad_cat_id": 43622,
        "meta_element_set_no": 999,
        "meta_rev_at_epoch": 4928,
        "meta_bstar": 0,
        "meta_mean_motion_dot": -6.7e-07,
        "meta_mean_motion_ddot": 0,
        "tle_line1": "1 43622U 18072A   25352.04497362 -.00000067  00000+0  00000+0 0  9999",
        "tle_line2": "2 43622  56.4641  68.6443 0006007 298.9487  61.0199  1.86231064 49286"
      },
      "geometry": {
        "type": "Point",
        "coordinates": [
          -23.24622856672893,
          -56.475010497577294
        ]
      }
    },
    {
      "type": "Feature",
      "properties": {
        "norad_id": 43623,
        "name": "BEIDOU-3 M14 (C33)",
        "group": "beidou",
        "lat": -0.6422674050792451,
        "lon": 68.19692976885112,
        "alt_km": 21520.09042560278,
        "timestamp": "2025-12-18T23:35:49.325462+00:00",
        "meta_object_name": "BEIDOU-3 M14 (C33)",
        "meta_object_id": "2018-072B",
        "meta_epoch": "2025-12-18T10:44:15.262368",
        "meta_mean_motion": 1.8623104,
        "meta_eccentricity": 0.00033898,
        "meta_inclination": 56.4661,
        "meta_ra_of_asc_node": 68.625,
        "meta_arg_of_pericenter": 331.3053,
        "meta_mean_anomaly": 28.7068,
        "meta_ephemeris_type": 0,
        "meta_classification_type": "U",
        "meta_norad_cat_id": 43623,
        "meta_element_set_no": 999,
        "meta_rev_at_epoch": 4928,
        "meta_bstar": 0,
        "meta_mean_motion_dot": -6.3e-07,
        "meta_mean_motion_ddot": 0,
        "tle_line1": "1 43623U 18072B   25352.44739887 -.00000063  00000+0  00000+0 0  9991",
        "tle_line2": "2 43623  56.4661  68.6250 0003389 331.3053  28.7068  1.86231040 49285"
      },
      "geometry": {
        "type": "Point",
        "coordinates": [
          68.19692976885112,
          -0.6422674050792451
        ]
      }
    },
    {
      "type": "Feature",
      "properties": {
        "norad_id": 43647,
        "name": "BEIDOU-3 M16 (C35)",
        "group": "beidou",
        "lat": -51.09409394626469,
        "lon": -170.65422066821625,
        "alt_km": 21545.556870013366,
        "timestamp": "2025-12-18T23:35:49.325474+00:00",
        "meta_object_name": "BEIDOU-3 M16 (C35)",
        "meta_object_id": "2018-078A",
        "meta_epoch": "2025-12-18T01:38:11.471712",
        "meta_mean_motion": 1.86232421,
        "meta_eccentricity": 0.00073225,
        "meta_inclination": 54.2571,
        "meta_ra_of_asc_node": 306.335,
        "meta_arg_of_pericenter": 19.7633,
        "meta_mean_anomaly": 340.2526,
        "meta_ephemeris_type": 0,
        "meta_classification_type": "U",
        "meta_norad_cat_id": 43647,
        "meta_element_set_no": 999,
        "meta_rev_at_epoch": 4878,
        "meta_bstar": 0,
        "meta_mean_motion_dot": -8.5e-07,
        "meta_mean_motion_ddot": 0,
        "tle_line1": "1 43647U 18078A   25352.06818833 -.00000085  00000+0  00000+0 0  9994",
        "tle_line2": "2 43647  54.2571 306.3350 0007322  19.7633 340.2526  1.86232421 48781"
      },
      "geometry": {
        "type": "Point",
        "coordinates": [
          -170.65422066821625,
          -51.09409394626469
        ]
      }
    },
    {
      "type": "Feature",
      "properties": {
        "norad_id": 43648,
        "name": "BEIDOU-3 M15 (C34)",
        "group": "beidou",
        "lat": 10.57720952765043,
        "lon": 118.55589621767987,
        "alt_km": 21535.99167748341,
        "timestamp": "2025-12-18T23:35:49.325485+00:00",
        "meta_object_name": "BEIDOU-3 M15 (C34)",
        "meta_object_id": "2018-078B",
        "meta_epoch": "2025-12-18T04:44:16.550592",
        "meta_mean_motion": 1.86232281,
        "meta_eccentricity": 0.00039569,
        "meta_inclination": 54.2524,
        "meta_ra_of_asc_node": 306.3307,
        "meta_arg_of_pericenter": 20.2527,
        "meta_mean_anomaly": 339.7508,
        "meta_ephemeris_type": 0,
        "meta_classification_type": "U",
        "meta_norad_cat_id": 43648,
        "meta_element_set_no": 999,
        "meta_rev_at_epoch": 4880,
        "meta_bstar": 0,
        "meta_mean_motion_dot": -8.5e-07,
        "meta_mean_motion_ddot": 0,
        "tle_line1": "1 43648U 18078B   25352.19741378 -.00000085  00000+0  00000+0 0  9998",
        "tle_line2": "2 43648  54.2524 306.3307 0003956  20.2527 339.7508  1.86232281 48800"
      },
      "geometry": {
        "type": "Point",
        "coordinates": [
          118.55589621767987,
          10.57720952765043
        ]
      }
    },
    {
      "type": "Feature",
      "properties": {
        "norad_id": 43683,
        "name": "BEIDOU-3 G1 (C59)",
        "group": "beidou",
        "lat": 2.2714103314391187,
        "lon": -138.13436609139177,
        "alt_km": 35784.33746874423,
        "timestamp": "2025-12-18T23:35:49.325497+00:00",
        "meta_object_name": "BEIDOU-3 G1 (C59)",
        "meta_object_id": "2018-085A",
        "meta_epoch": "2025-12-18T15:40:20.515008",
        "meta_mean_motion": 1.00269184,
        "meta_eccentricity": 0.00016338,
        "meta_inclination": 2.622,
        "meta_ra_of_asc_node": 102.7934,
        "meta_arg_of_pericenter": 48.1042,
        "meta_mean_anomaly": 311.7383,
        "meta_ephemeris_type": 0,
        "meta_classification_type": "U",
        "meta_norad_cat_id": 43683,
        "meta_element_set_no": 999,
        "meta_rev_at_epoch": 2625,
        "meta_bstar": 0,
        "meta_mean_motion_dot": -2.55e-06,
        "meta_mean_motion_ddot": 0,
        "tle_line1": "1 43683U 18085A   25352.65301522 -.00000255  00000+0  00000+0 0  9998",
        "tle_line2": "2 43683   2.6220 102.7934 0001633  48.1042 311.7383  1.00269184 26258"
      },
      "geometry": {
        "type": "Point",
        "coordinates": [
          -138.13436609139177,
          2.2714103314391187
        ]
      }
    }
  ]
}